[{"OBJECT_NAME":"PAZ","OBJECT_ID":"2018-020A","EPOCH":"2026-03-09T23:24:20.190816","MEAN_MOTION":15.19156042,"ECCENTRICITY":0.00016941,"INCLINATION":97.4464,"RA_OF_ASC_NODE":77.7719,"ARG_OF_PERICENTER":90.6952,"MEAN_ANOMALY":269.4477,"EPHEMERIS_TYPE":0,"CLASSIFICATION_TYPE":"U","NORAD_CAT_ID":43215,"ELEMENT_SET_NO":999,"REV_AT_EPOCH":44594,"BSTAR":0.00012684525,"MEAN_MOTION_DOT":2.598e-5,"MEAN_MOTION_DDOT":0},{"OBJECT_NAME":"CZ-6A DEB","OBJECT_ID":"2022-151SL","EPOCH":"2026-03-09T10:13:37.626816","MEAN_MOTION":15.13067162,"ECCENTRICITY":0.00442991,"INCLINATION":99.1095,"RA_OF_ASC_NODE":231.9477,"ARG_OF_PERICENTER":182.6933,"MEAN_ANOMALY":177.4061,"EPHEMERIS_TYPE":0,"CLASSIFICATION_TYPE":"U","NORAD_CAT_ID":54947,"ELEMENT_SET_NO":999,"REV_AT_EPOCH":17723,"BSTAR":0.0054047259,"MEAN_MOTION_DOT":0.00099065,"MEAN_MOTION_DDOT":0}]
